QIANFAN-175             
1 69392U 26124L   26170.91136007  .00000086  00000+0  32925-4 0  9995
2 69392  88.9983   1.7240 0003599 161.6531 198.4790 14.21339747  2202
QIANFAN-176             
1 69393U 26124M   26170.90882107  .00000085  00000+0  32217-4 0  9997
2 69393  88.9983   1.7235 0002539 163.2284 196.8991 14.21841069  2203
QIANFAN-177             
1 69394U 26124N   26170.90533008  .00000066  00000+0  23112-4 0  9994
2 69394  88.9983   1.7230 0003824 138.7144 221.4338 14.22730469  2201
QIANFAN-178             
1 69395U 26124P   26170.90683033  .00000265  00000+0  11269-3 0  9999
2 69395  88.9983   1.7231 0003046 147.3858 212.7522 14.22274429  2204
QIANFAN-179             
1 69396U 26124Q   26170.90323031  .00000068  00000+0  23552-4 0  9999
2 69396  88.9983   1.7226 0003078 142.9572 217.1833 14.23097110  2203
QIANFAN-180             
1 69397U 26124R   26170.90187107  .00000067  00000+0  23061-4 0  9996
2 69397  88.9983   1.7225 0003270 155.6393 204.4954 14.23618646  2205
QIANFAN-181             
1 69398U 26124S   26170.93882058  .00000074  00000+0  29776-4 0  9994
2 69398  88.9983   1.7281 0002633 109.8521 250.2951 14.16649402  2206
QIANFAN-182             
1 69399U 26124T   26170.85515545  .00000079  00000+0  30976-4 0  9999
2 69399  88.9984   1.7341 0002581 133.8298 226.3105 14.18738477  2191
QIANFAN-183             
1 69401U 26125A   26170.74218191 -.02144644  00000+0 -12246+1 0  9996
2 69401  88.9922 280.1615 0015101 180.2570 179.8612 14.13967662  2061
QIANFAN-184             
1 69402U 26125B   26170.73468796 -.01965231  00000+0 -11283+1 0  9996
2 69402  88.9939 280.1598 0017335 157.7136 202.4808 14.13282040  2068
QIANFAN-185             
1 69403U 26125C   26170.80593634 -.01850064  00000+0 -10873+1 0  9996
2 69403  88.9950 280.1526 0020620 152.1571 208.0723 14.11744531  2071
QIANFAN-186             
1 69404U 26125D   26170.73084055 -.02150127  00000+0 -12051+1 0  9995
2 69404  88.9911 280.1598 0016523 183.2578 176.8505 14.14978163  2069
QIANFAN-187             
1 69405U 26125E   26170.72764104 -.02149587  00000+0 -11814+1 0  9999
2 69405  88.9950 280.1573 0017684 186.7116 173.3838 14.16025362  2068
QIANFAN-188             
1 69406U 26125F   26170.72306576 -.02119869  00000+0 -11463+1 0  9995
2 69406  88.9957 280.1569 0017125 188.2634 171.8275 14.16843723  2060
QIANFAN-189             
1 69407U 26125G   26170.72193317 -.01853945  00000+0 -10384+1 0  9993
2 69407  88.9947 280.1586 0014980 167.6028 192.5531 14.14417547  2067
QIANFAN-190             
1 69408U 26125H   26170.93298204 -.02091624  00000+0 -11418+1 0  9996
2 69408  88.9967 280.1343 0017438 185.5805 174.5192 14.16273042  2092
QIANFAN-191             
1 69409U 26125J   26170.71553640 -.01819046  00000+0 -99942+0 0  9993
2 69409  88.9947 280.1576 0012443 170.0084 190.1353 14.15407399  2061
QIANFAN-192             
1 69410U 26125K   26170.92433969 -.01790310  00000+0 -98186+0 0  9990
2 69410  88.9948 280.1334 0016279 177.5190 182.6082 14.16063402  2099
QIANFAN-193             
1 69411U 26125L   26170.92078143 -.01770444  00000+0 -96558+0 0  9997
2 69411  88.9948 280.1327 0014666 178.8083 181.3143 14.16328961  2093
QIANFAN-194             
1 69412U 26125M   26170.77817540 -.01787424  00000+0 -96675+0 0  9999
2 69412  88.9947 280.1486 0012364 186.3713 173.7320 14.16835506  2063
QIANFAN-195             
1 69413U 26125N   26170.77760962 -.02060440  00000+0 -10715+1 0  9990
2 69413  88.9935 280.1519 0014843 185.9073 174.1944 14.18838348  2073
QIANFAN-196             
1 69414U 26125P   26170.91564341 -.01924076  00000+0 -10087+1 0  9995
2 69414  88.9944 280.1314 0018614 184.7506 175.3509 14.18090796  2094
QIANFAN-197             
1 69415U 26125Q   26170.77375360 -.01921916  00000+0 -10034+1 0  9993
2 69415  88.9949 280.1479 0009001 172.9343 187.1975 14.18379903  2065
QIANFAN-198             
1 69416U 26125R   26170.77438195 -.01897356  00000+0 -99690+0 0  9994
2 69416  88.9948 280.1483 0009053 170.9232 189.2123 14.17990071  2075
QIANFAN-199             
1 69417U 26125S   26170.77152315 -.01926055  00000+0 -97995+0 0  9997
2 69417  88.9945 280.1474 0014695 175.6046 184.5276 14.19732489  2072
QIANFAN-200             
1 69418U 26125T   26170.85805584 -.01893052  00000+0 -10402+1 0  9999
2 69418  88.9946 280.1421 0014564 173.5980 186.5397 14.15539357  2087
STARLINK-37537          
1 69420U 26126A   26170.84177401  .00186036  00000+0  12197-2 0  9991
2 69420  97.2831  30.9483 0001114  91.7906 268.3487 15.75218056  3167
STARLINK-37585          
1 69421U 26126B   26170.95824408  .00253047  00000+0  16428-2 0  9998
2 69421  97.2841  31.0971 0001116  91.3754 268.7639 15.75258057  3182
